start=new Date('2023-01-15T00:00:00.000Z').valueOf();
sats=[{"MEAN_MOTION_DDOT":"0.0000000000000","ECCENTRICITY":"0.00021140","TIME_SYSTEM":"UTC","EPHEMERIS_TYPE":"0","CLASSIFICATION_TYPE":"U","TLE_LINE1":"1 53826U 22114J   23013.97698026  .00005103  00000-0  33856-3 0  9997","SITE":"AFETR","INCLINATION":"53.2187","RCS_SIZE":"LARGE","SEMIMAJOR_AXIS":"6917.899","PERIAPSIS":"538.301","REV_AT_EPOCH":"1857","NORAD_CAT_ID":"53826","LAUNCH_DATE":"2022-09-19","MEAN_ELEMENT_THEORY":"SGP4","MEAN_MOTION":"15.08834006","DECAY_DATE":null,"MEAN_ANOMALY":"314.2056","TLE_LINE2":"2 53826  53.2187  69.8119 0002114  45.9110 314.2056 15.08834006 18571","PERIOD":"95.438","BSTAR":"0.00033856000000","RA_OF_ASC_NODE":"69.8119","APOAPSIS":"541.226","REF_FRAME":"TEME","ARG_OF_PERICENTER":"45.9110","OBJECT_ID":"2022-114J","FILE":"3744403","EPOCH":"2023-01-13T23:26:51.094464","ELEMENT_SET_NO":"999","CENTER_NAME":"EARTH","GP_ID":"222992121","COUNTRY_CODE":"US","OBJECT_TYPE":"PAYLOAD","MEAN_MOTION_DOT":"0.00005103","OBJECT_NAME":"STARLINK-4756"},{"BSTAR":"0.00008697000000","RA_OF_ASC_NODE":"66.0091","REF_FRAME":"TEME","ARG_OF_PERICENTER":"71.2517","APOAPSIS":"540.675","OBJECT_ID":"2022-114K","FILE":"3745238","ELEMENT_SET_NO":"999","EPOCH":"2023-01-14T20:22:46.728480","CENTER_NAME":"EARTH","OBJECT_TYPE":"PAYLOAD","COUNTRY_CODE":"US","GP_ID":"223027622","OBJECT_NAME":"STARLINK-4764","MEAN_MOTION_DOT":"0.00001096","TIME_SYSTEM":"UTC","EPHEMERIS_TYPE":"0","MEAN_MOTION_DDOT":"0.0000000000000","ECCENTRICITY":"0.00013000","CLASSIFICATION_TYPE":"U","TLE_LINE1":"1 53827U 22114K   23014.84915195  .00001096  00000-0  86970-4 0  9997","INCLINATION":"53.2179","SITE":"AFETR","SEMIMAJOR_AXIS":"6917.911","RCS_SIZE":"LARGE","MEAN_MOTION":"15.08830141","DECAY_DATE":null,"REV_AT_EPOCH":"1870","PERIAPSIS":"538.876","LAUNCH_DATE":"2022-09-19","MEAN_ELEMENT_THEORY":"SGP4","NORAD_CAT_ID":"53827","MEAN_ANOMALY":"288.8616","TLE_LINE2":"2 53827  53.2179  66.0091 0001300  71.2517 288.8616 15.08830141 18709","PERIOD":"95.438"},{"BSTAR":"0.00020344000000","RA_OF_ASC_NODE":"65.9190","REF_FRAME":"TEME","ARG_OF_PERICENTER":"53.5624","APOAPSIS":"541.419","OBJECT_ID":"2022-114L","FILE":"3745238","ELEMENT_SET_NO":"999","EPOCH":"2023-01-14T20:01:33.250368","CENTER_NAME":"EARTH","COUNTRY_CODE":"US","OBJECT_TYPE":"PAYLOAD","GP_ID":"223027623","OBJECT_NAME":"STARLINK-4760","MEAN_MOTION_DOT":"0.00002951","TIME_SYSTEM":"UTC","EPHEMERIS_TYPE":"0","MEAN_MOTION_DDOT":"0.0000000000000","ECCENTRICITY":"0.00023990","TLE_LINE1":"1 53828U 22114L   23014.83441262  .00002951  00000-0  20344-3 0  9999","CLASSIFICATION_TYPE":"U","INCLINATION":"53.2175","SITE":"AFETR","SEMIMAJOR_AXIS":"6917.894","RCS_SIZE":"LARGE","DECAY_DATE":null,"MEAN_MOTION":"15.08835403","REV_AT_EPOCH":"1870","PERIAPSIS":"538.100","LAUNCH_DATE":"2022-09-19","NORAD_CAT_ID":"53828","MEAN_ELEMENT_THEORY":"SGP4","MEAN_ANOMALY":"306.5589","TLE_LINE2":"2 53828  53.2175  65.9190 0002399  53.5624 306.5589 15.08835403 18708","PERIOD":"95.438"},{"MEAN_MOTION_DOT":"0.00000218","OBJECT_NAME":"STARLINK-4759","GP_ID":"223027621","OBJECT_TYPE":"PAYLOAD","COUNTRY_CODE":"US","CENTER_NAME":"EARTH","EPOCH":"2023-01-14T20:17:28.347936","ELEMENT_SET_NO":"999","FILE":"3745238","OBJECT_ID":"2022-114M","APOAPSIS":"541.083","ARG_OF_PERICENTER":"45.3709","REF_FRAME":"TEME","RA_OF_ASC_NODE":"65.9894","BSTAR":"0.00003181600000","PERIOD":"95.439","TLE_LINE2":"2 53829  53.2168  65.9894 0001862  45.3709 314.7435 15.08823647 18707","MEAN_ANOMALY":"314.7435","NORAD_CAT_ID":"53829","LAUNCH_DATE":"2022-09-19","MEAN_ELEMENT_THEORY":"SGP4","REV_AT_EPOCH":"1870","PERIAPSIS":"538.507","DECAY_DATE":null,"MEAN_MOTION":"15.08823647","RCS_SIZE":"LARGE","SEMIMAJOR_AXIS":"6917.930","SITE":"AFETR","INCLINATION":"53.2168","TLE_LINE1":"1 53829U 22114M   23014.84546699  .00000218  00000-0  31816-4 0  9992","CLASSIFICATION_TYPE":"U","MEAN_MOTION_DDOT":"0.0000000000000","ECCENTRICITY":"0.00018620","EPHEMERIS_TYPE":"0","TIME_SYSTEM":"UTC"},{"RA_OF_ASC_NODE":"65.8710","BSTAR":"0.00013893000000","APOAPSIS":"541.069","ARG_OF_PERICENTER":"103.0317","REF_FRAME":"TEME","FILE":"3745238","OBJECT_ID":"2022-114N","EPOCH":"2023-01-14T19:50:57.341184","ELEMENT_SET_NO":"999","CENTER_NAME":"EARTH","GP_ID":"223027617","OBJECT_TYPE":"PAYLOAD","COUNTRY_CODE":"US","MEAN_MOTION_DOT":"0.00001924","OBJECT_NAME":"STARLINK-4761","MEAN_MOTION_DDOT":"0.0000000000000","ECCENTRICITY":"0.00019270","EPHEMERIS_TYPE":"0","TIME_SYSTEM":"UTC","CLASSIFICATION_TYPE":"U","TLE_LINE1":"1 53830U 22114N   23014.82705256  .00001924  00000-0  13893-3 0  9997","SITE":"AFETR","INCLINATION":"53.2189","RCS_SIZE":"LARGE","SEMIMAJOR_AXIS":"6917.871","MEAN_ELEMENT_THEORY":"SGP4","LAUNCH_DATE":"2022-09-19","NORAD_CAT_ID":"53830","REV_AT_EPOCH":"1870","PERIAPSIS":"538.403","DECAY_DATE":null,"MEAN_MOTION":"15.08843008","MEAN_ANOMALY":"257.0890","TLE_LINE2":"2 53830  53.2189  65.8710 0001927 103.0317 257.0890 15.08843008 18704","PERIOD":"95.437"},{"OBJECT_NAME":"STARLINK-4649","MEAN_MOTION_DOT":"0.00014598","OBJECT_TYPE":"PAYLOAD","COUNTRY_CODE":"US","GP_ID":"223027618","CENTER_NAME":"EARTH","ELEMENT_SET_NO":"999","EPOCH":"2023-01-14T20:12:10.096992","OBJECT_ID":"2022-114P","FILE":"3745238","REF_FRAME":"TEME","ARG_OF_PERICENTER":"51.6322","APOAPSIS":"541.418","BSTAR":"0.00093342000000","RA_OF_ASC_NODE":"65.9617","PERIOD":"95.438","TLE_LINE2":"2 53831  53.2166  65.9617 0002412  51.6322 308.4886 15.08838618 18708","MEAN_ANOMALY":"308.4886","MEAN_MOTION":"15.08838618","DECAY_DATE":null,"PERIAPSIS":"538.081","REV_AT_EPOCH":"1870","MEAN_ELEMENT_THEORY":"SGP4","LAUNCH_DATE":"2022-09-19","NORAD_CAT_ID":"53831","SEMIMAJOR_AXIS":"6917.885","RCS_SIZE":"LARGE","INCLINATION":"53.2166","SITE":"AFETR","TLE_LINE1":"1 53831U 22114P   23014.84178353  .00014598  00000-0  93342-3 0  9990","CLASSIFICATION_TYPE":"U","TIME_SYSTEM":"UTC","EPHEMERIS_TYPE":"0","MEAN_MOTION_DDOT":"0.0000000000000","ECCENTRICITY":"0.00024120"},{"REF_FRAME":"TEME","ARG_OF_PERICENTER":"52.2120","APOAPSIS":"541.232","BSTAR":"0.00015811000000","RA_OF_ASC_NODE":"67.0171","EPOCH":"2023-01-14T13:18:46.673568","ELEMENT_SET_NO":"999","OBJECT_ID":"2022-114Q","FILE":"3745238","COUNTRY_CODE":"US","OBJECT_TYPE":"PAYLOAD","GP_ID":"223027615","CENTER_NAME":"EARTH","OBJECT_NAME":"STARLINK-4747","MEAN_MOTION_DOT":"0.00002230","CLASSIFICATION_TYPE":"U","TLE_LINE1":"1 53832U 22114Q   23014.55470687  .00002230  00000-0  15811-3 0  9999","TIME_SYSTEM":"UTC","EPHEMERIS_TYPE":"0","MEAN_MOTION_DDOT":"0.0000000000000","ECCENTRICITY":"0.00021950","SEMIMAJOR_AXIS":"6917.849","RCS_SIZE":"LARGE","INCLINATION":"53.2179","SITE":"AFETR","MEAN_MOTION":"15.08850263","DECAY_DATE":null,"PERIAPSIS":"538.196","REV_AT_EPOCH":"1866","LAUNCH_DATE":"2022-09-19","MEAN_ELEMENT_THEORY":"SGP4","NORAD_CAT_ID":"53832","PERIOD":"95.437","MEAN_ANOMALY":"307.9071","TLE_LINE2":"2 53832  53.2179  67.0171 0002195  52.2120 307.9071 15.08850263 18667"},{"CLASSIFICATION_TYPE":"U","TLE_LINE1":"1 53833U 22114R   23014.30080586  .00005120  00000-0  33951-3 0  9994","TIME_SYSTEM":"UTC","EPHEMERIS_TYPE":"0","MEAN_MOTION_DDOT":"0.0000000000000","ECCENTRICITY":"0.00013900","SEMIMAJOR_AXIS":"6917.864","RCS_SIZE":"LARGE","INCLINATION":"53.2179","SITE":"AFETR","DECAY_DATE":null,"MEAN_MOTION":"15.08845216","REV_AT_EPOCH":"1862","PERIAPSIS":"538.768","NORAD_CAT_ID":"53833","LAUNCH_DATE":"2022-09-19","MEAN_ELEMENT_THEORY":"SGP4","PERIOD":"95.437","MEAN_ANOMALY":"258.7361","TLE_LINE2":"2 53833  53.2179  68.2767 0001390 101.3788 258.7361 15.08845216 18627","REF_FRAME":"TEME","ARG_OF_PERICENTER":"101.3788","APOAPSIS":"540.691","BSTAR":"0.00033951000000","RA_OF_ASC_NODE":"68.2767","ELEMENT_SET_NO":"999","EPOCH":"2023-01-14T07:13:09.626304","OBJECT_ID":"2022-114R","FILE":"3744404","COUNTRY_CODE":"US","OBJECT_TYPE":"PAYLOAD","GP_ID":"222992351","CENTER_NAME":"EARTH","OBJECT_NAME":"STARLINK-4771","MEAN_MOTION_DOT":"0.00005120"},{"REF_FRAME":"TEME","ARG_OF_PERICENTER":"53.9438","APOAPSIS":"541.226","BSTAR":"0.00026184000000","RA_OF_ASC_NODE":"68.1661","EPOCH":"2023-01-14T06:46:38.227296","ELEMENT_SET_NO":"999","OBJECT_ID":"2022-114S","FILE":"3744404","OBJECT_TYPE":"PAYLOAD","COUNTRY_CODE":"US","GP_ID":"222992145","CENTER_NAME":"EARTH","OBJECT_NAME":"STARLINK-4737","MEAN_MOTION_DOT":"0.00003881","TLE_LINE1":"1 53834U 22114S   23014.28238689  .00003881  00000-0  26184-3 0  9993","CLASSIFICATION_TYPE":"U","TIME_SYSTEM":"UTC","EPHEMERIS_TYPE":"0","ECCENTRICITY":"0.00021180","MEAN_MOTION_DDOT":"0.0000000000000","SEMIMAJOR_AXIS":"6917.896","RCS_SIZE":"LARGE","INCLINATION":"53.2170","SITE":"AFETR","DECAY_DATE":null,"MEAN_MOTION":"15.08834991","PERIAPSIS":"538.295","REV_AT_EPOCH":"1862","NORAD_CAT_ID":"53834","LAUNCH_DATE":"2022-09-19","MEAN_ELEMENT_THEORY":"SGP4","PERIOD":"95.438","TLE_LINE2":"2 53834  53.2170  68.1661 0002118  53.9438 306.1750 15.08834991 18622","MEAN_ANOMALY":"306.1750"},{"APOAPSIS":"540.845","ARG_OF_PERICENTER":"64.5468","REF_FRAME":"TEME","RA_OF_ASC_NODE":"68.2272","BSTAR":"0.00047221000000","ELEMENT_SET_NO":"999","EPOCH":"2023-01-14T07:02:32.677728","FILE":"3744404","OBJECT_ID":"2022-114T","GP_ID":"222992138","COUNTRY_CODE":"US","OBJECT_TYPE":"PAYLOAD","CENTER_NAME":"EARTH","MEAN_MOTION_DOT":"0.00007237","OBJECT_NAME":"STARLINK-4783","CLASSIFICATION_TYPE":"U","TLE_LINE1":"1 53835U 22114T   23014.29343377  .00007237  00000-0  47221-3 0  9990","MEAN_MOTION_DDOT":"0.0000000000000","ECCENTRICITY":"0.00016240","EPHEMERIS_TYPE":"0","TIME_SYSTEM":"UTC","RCS_SIZE":"LARGE","SEMIMAJOR_AXIS":"6917.857","SITE":"AFETR","INCLINATION":"53.2163","LAUNCH_DATE":"2022-09-19","MEAN_ELEMENT_THEORY":"SGP4","NORAD_CAT_ID":"53835","REV_AT_EPOCH":"1862","PERIAPSIS":"538.598","MEAN_MOTION":"15.08847749","DECAY_DATE":null,"PERIOD":"95.437","MEAN_ANOMALY":"295.5692","TLE_LINE2":"2 53835  53.2163  68.2272 0001624  64.5468 295.5692 15.08847749 18627"}];
